{
    "links": {
        "self": "http://www.neowsapp.com/rest/v1/neo/3878612?api_key=iIulBulltgU6a56xZRHN4H3l9WmuAYTsLGpBGhQ2"
    },
    "id": "3878612",
    "neo_reference_id": "3878612",
    "name": "(2019 TR4)",
    "designation": "2019 TR4",
    "nasa_jpl_url": "http://ssd.jpl.nasa.gov/sbdb.cgi?sstr=3878612",
    "absolute_magnitude_h": 26.8,
    "estimated_diameter": {
        "kilometers": {
            "estimated_diameter_min": 0.0116025908,
            "estimated_diameter_max": 0.0259441818
        },
        "meters": {
            "estimated_diameter_min": 11.6025908209,
            "estimated_diameter_max": 25.9441817907
        },
        "miles": {
            "estimated_diameter_min": 0.0072095135,
            "estimated_diameter_max": 0.0161209622
        },
        "feet": {
            "estimated_diameter_min": 38.066244069,
            "estimated_diameter_max": 85.1187093863
        }
    },
    "is_potentially_hazardous_asteroid": false,
    "close_approach_data": [
        {
            "close_approach_date": "2015-03-06",
            "close_approach_date_full": "2015-Mar-06 19:05",
            "epoch_date_close_approach": 1425668700000,
            "relative_velocity": {
                "kilometers_per_second": "7.2134941962",
                "kilometers_per_hour": "25968.5791062581",
                "miles_per_hour": "16135.8651674413"
            },
            "miss_distance": {
                "astronomical": "0.4064910277",
                "lunar": "158.1250097753",
                "kilometers": "60810191.918030999",
                "miles": "37785701.1116218262"
            },
            "orbiting_body": "Earth"
        },
        {
            "close_approach_date": "2019-05-22",
            "close_approach_date_full": "2019-May-22 14:48",
            "epoch_date_close_approach": 1558536480000,
            "relative_velocity": {
                "kilometers_per_second": "2.6622674252",
                "kilometers_per_hour": "9584.1627305637",
                "miles_per_hour": "5955.2260033327"
            },
            "miss_distance": {
                "astronomical": "0.1939763459",
                "lunar": "75.4567985551",
                "kilometers": "29018448.177023233",
                "miles": "18031227.5780692954"
            },
            "orbiting_body": "Earth"
        },
        {
            "close_approach_date": "2019-09-25",
            "close_approach_date_full": "2019-Sep-25 00:19",
            "epoch_date_close_approach": 1569370740000,
            "relative_velocity": {
                "kilometers_per_second": "4.6273009395",
                "kilometers_per_hour": "16658.2833820739",
                "miles_per_hour": "10350.8094714892"
            },
            "miss_distance": {
                "astronomical": "0.0279983648",
                "lunar": "10.8913639072",
                "kilometers": "4188495.737562976",
                "miles": "2602610.5666660288"
            },
            "orbiting_body": "Earth"
        },
        {
            "close_approach_date": "2023-05-27",
            "close_approach_date_full": "2023-May-27 17:45",
            "epoch_date_close_approach": 1685209500000,
            "relative_velocity": {
                "kilometers_per_second": "15.9270979119",
                "kilometers_per_hour": "57337.5524828648",
                "miles_per_hour": "35627.3253191445"
            },
            "miss_distance": {
                "astronomical": "0.4021548456",
                "lunar": "156.4382349384",
                "kilometers": "60161508.311938872",
                "miles": "37382627.8095535536"
            },
            "orbiting_body": "Earth"
        },
        {
            "close_approach_date": "2180-10-16",
            "close_approach_date_full": "2180-Oct-16 16:50",
            "epoch_date_close_approach": 6651996600000,
            "relative_velocity": {
                "kilometers_per_second": "12.9636327635",
                "kilometers_per_hour": "46669.0779485413",
                "miles_per_hour": "28998.3501286367"
            },
            "miss_distance": {
                "astronomical": "0.2869581174",
                "lunar": "111.6267076686",
                "kilometers": "42928323.142249938",
                "miles": "26674423.0911596244"
            },
            "orbiting_body": "Earth"
        }
    ],
    "orbital_data": {
        "orbit_id": "5",
        "orbit_determination_date": "2020-10-12 07:25:36",
        "first_observation_date": "2019-10-08",
        "last_observation_date": "2019-10-22",
        "data_arc_in_days": 14,
        "observations_used": 20,
        "orbit_uncertainty": "8",
        "minimum_orbit_intersection": ".0260182",
        "jupiter_tisserand_invariant": "5.300",
        "epoch_osculation": "2458773.5",
        "eccentricity": ".1837710420440583",
        "semi_major_axis": "1.193004193019625",
        "inclination": "4.481879448901251",
        "ascending_node_longitude": "199.6384723946664",
        "orbital_period": "475.9500557031658",
        "perihelion_distance": ".9737645693054775",
        "perihelion_argument": "120.721654672462",
        "aphelion_distance": "1.412243816733772",
        "perihelion_time": "2458713.243516866422",
        "mean_anomaly": "45.57691225824095",
        "mean_motion": ".7563818843725906",
        "equinox": "J2000",
        "orbit_class": {
            "orbit_class_type": "APO",
            "orbit_class_description": "Near-Earth asteroid orbits which cross the Earth’s orbit similar to that of 1862 Apollo",
            "orbit_class_range": "a (semi-major axis) > 1.0 AU; q (perihelion) < 1.017 AU"
        }
    },
    "is_sentry_object": false
}